{
  "norad_id": 58522,
  "name": "STARLINK-31023",
  "history": [
    {
      "epoch": "2026-03-29T02:50:07.719360Z",
      "apogee_km": 258.5901677600814,
      "perigee_km": 255.3562150527905,
      "latitude_deg": -4.456537959521428e-06,
      "longitude_deg": 115.77120143878292,
      "height_km": 257.18548276388265,
      "semi_major_axis_km": 6635.110191406436,
      "eccentricity": 0.0002437,
      "inclination_deg": 42.9978,
      "raan_deg": 344.8322,
      "arg_perigee_deg": 254.1034,
      "mean_anomaly_deg": 105.9578,
      "mean_motion_rev_day": 16.06314399
    }
  ]
}