{"fetched_at":"2026-03-29T16:36:15Z","count":15609,"tles":[{"name":"STARLINK-31023","line1":"1 58522U 23191Q   26088.11814490  .02274987  45031-2  31346-2 0  9993","line2":"2 58522  42.9978 344.8322 0002437 254.1034 105.9578 16.06314399128541","category":"Starlink"}]}